[{"OBJECT_NAME":"STARLINK-5369","OBJECT_ID":"2022-177T","EPOCH":"2026-03-09T04:46:13.073088","MEAN_MOTION":15.02534269,"ECCENTRICITY":0.00011479,"INCLINATION":43.0015,"RA_OF_ASC_NODE":135.8119,"ARG_OF_PERICENTER":273.0142,"MEAN_ANOMALY":87.0569,"EPHEMERIS_TYPE":0,"CLASSIFICATION_TYPE":"U","NORAD_CAT_ID":54837,"ELEMENT_SET_NO":999,"REV_AT_EPOCH":17688,"BSTAR":3.3648485e-5,"MEAN_MOTION_DOT":2.51e-6,"MEAN_MOTION_DDOT":0},{"OBJECT_NAME":"COSMOS 2251 DEB","OBJECT_ID":"1993-036BC","EPOCH":"2026-03-09T15:03:07.178688","MEAN_MOTION":15.0931248,"ECCENTRICITY":0.0027782,"INCLINATION":73.8339,"RA_OF_ASC_NODE":121.9492,"ARG_OF_PERICENTER":197.5511,"MEAN_ANOMALY":285.2146,"EPHEMERIS_TYPE":0,"CLASSIFICATION_TYPE":"U","NORAD_CAT_ID":33811,"ELEMENT_SET_NO":999,"REV_AT_EPOCH":91327,"BSTAR":0.0014101,"MEAN_MOTION_DOT":0.00022722,"MEAN_MOTION_DDOT":0}]
